{
  "type": "FeatureCollection",
  "features": [
    {
      "type": "Feature",
      "properties": {
        "norad_id": 43706,
        "name": "BEIDOU-3 M17 (C36)",
        "group": "beidou",
        "lat": 41.3161241580052,
        "lon": -31.054771009573464,
        "alt_km": 21540.36352070371,
        "timestamp": "2025-12-19T14:48:36.512901+00:00",
        "meta_object_name": "BEIDOU-3 M17 (C36)",
        "meta_object_id": "2018-093A",
        "meta_epoch": "2025-12-15T07:56:44.520576",
        "meta_mean_motion": 1.86228523,
        "meta_eccentricity": 0.00061371,
        "meta_inclination": 54.1729,
        "meta_ra_of_asc_node": 188.5337,
        "meta_arg_of_pericenter": 307.6759,
        "meta_mean_anomaly": 184.25,
        "meta_ephemeris_type": 0,
        "meta_classification_type": "U",
        "meta_norad_cat_id": 43706,
        "meta_element_set_no": 999,
        "meta_rev_at_epoch": 4811,
        "meta_bstar": 0,
        "meta_mean_motion_dot": 1.13e-06,
        "meta_mean_motion_ddot": 0,
        "tle_line1": "1 43706U 18093A   25349.33107084  .00000113  00000+0  00000+0 0  9993",
        "tle_line2": "2 43706  54.1729 188.5337 0006137 307.6759 184.2500  1.86228523 48110"
      },
      "geometry": {
        "type": "Point",
        "coordinates": [
          -31.054771009573464,
          41.3161241580052
        ]
      }
    },
    {
      "type": "Feature",
      "properties": {
        "norad_id": 43707,
        "name": "BEIDOU-3 M18 (C37)",
        "group": "beidou",
        "lat": -30.112641269032046,
        "lon": 33.17158855055437,
        "alt_km": 21544.76382801014,
        "timestamp": "2025-12-19T14:48:36.512912+00:00",
        "meta_object_name": "BEIDOU-3 M18 (C37)",
        "meta_object_id": "2018-093B",
        "meta_epoch": "2025-12-16T14:33:42.784416",
        "meta_mean_motion": 1.8622677,
        "meta_eccentricity": 0.00063186,
        "meta_inclination": 54.1735,
        "meta_ra_of_asc_node": 188.4822,
        "meta_arg_of_pericenter": 353.2257,
        "meta_mean_anomaly": 6.8349,
        "meta_ephemeris_type": 0,
        "meta_classification_type": "U",
        "meta_norad_cat_id": 43707,
        "meta_element_set_no": 999,
        "meta_rev_at_epoch": 4813,
        "meta_bstar": 0,
        "meta_mean_motion_dot": 1.15e-06,
        "meta_mean_motion_ddot": 0,
        "tle_line1": "1 43707U 18093B   25350.60674519  .00000115  00000+0  00000+0 0  9990",
        "tle_line2": "2 43707  54.1735 188.4822 0006318 353.2257   6.8349  1.86226770 48131"
      },
      "geometry": {
        "type": "Point",
        "coordinates": [
          33.17158855055437,
          -30.112641269032046
        ]
      }
    },
    {
      "type": "Feature",
      "properties": {
        "norad_id": 44204,
        "name": "BEIDOU-3 IGSO-1 (C38)",
        "group": "beidou",
        "lat": 19.795609460034925,
        "lon": 52.31667656302174,
        "alt_km": 35900.71065832873,
        "timestamp": "2025-12-19T14:48:36.512924+00:00",
        "meta_object_name": "BEIDOU-3 IGSO-1 (C38)",
        "meta_object_id": "2019-023A",
        "meta_epoch": "2025-11-19T14:15:02.708640",
        "meta_mean_motion": 1.00252177,
        "meta_eccentricity": 0.0026966,
        "meta_inclination": 58.4003,
        "meta_ra_of_asc_node": 39.8168,
        "meta_arg_of_pericenter": 221.2202,
        "meta_mean_anomaly": 126.9723,
        "meta_ephemeris_type": 0,
        "meta_classification_type": "U",
        "meta_norad_cat_id": 44204,
        "meta_element_set_no": 999,
        "meta_rev_at_epoch": 510,
        "meta_bstar": 0,
        "meta_mean_motion_dot": -2.26e-06,
        "meta_mean_motion_ddot": 0,
        "tle_line1": "1 44204U 19023A   25323.59378135 -.00000226  00000+0  00000+0 0  9994",
        "tle_line2": "2 44204  58.4003  39.8168 0026966 221.2202 126.9723  1.00252177  5102"
      },
      "geometry": {
        "type": "Point",
        "coordinates": [
          52.31667656302174,
          19.795609460034925
        ]
      }
    },
    {
      "type": "Feature",
      "properties": {
        "norad_id": 44231,
        "name": "BEIDOU-2 G8 (C01)",
        "group": "beidou",
        "lat": 0.6118477959057037,
        "lon": 95.1124236243657,
        "alt_km": 35802.928642433144,
        "timestamp": "2025-12-19T14:48:36.512940+00:00",
        "meta_object_name": "BEIDOU-2 G8 (C01)",
        "meta_object_id": "2019-027A",
        "meta_epoch": "2025-12-19T07:06:10.829088",
        "meta_mean_motion": 1.00276635,
        "meta_eccentricity": 0.00081822,
        "meta_inclination": 1.6779,
        "meta_ra_of_asc_node": 74.7271,
        "meta_arg_of_pericenter": 258.4775,
        "meta_mean_anomaly": 5.9166,
        "meta_ephemeris_type": 0,
        "meta_classification_type": "U",
        "meta_norad_cat_id": 44231,
        "meta_element_set_no": 999,
        "meta_rev_at_epoch": 2427,
        "meta_bstar": 0,
        "meta_mean_motion_dot": -2.24e-06,
        "meta_mean_motion_ddot": 0,
        "tle_line1": "1 44231U 19027A   25353.29595867 -.00000224  00000+0  00000+0 0  9999",
        "tle_line2": "2 44231   1.6779  74.7271 0008182 258.4775   5.9166  1.00276635 24273"
      },
      "geometry": {
        "type": "Point",
        "coordinates": [
          95.1124236243657,
          0.6118477959057037
        ]
      }
    },
    {
      "type": "Feature",
      "properties": {
        "norad_id": 44337,
        "name": "BEIDOU-3 IGSO-2 (C39)",
        "group": "beidou",
        "lat": -55.16713522991313,
        "lon": 70.50507008211115,
        "alt_km": 35733.15903906193,
        "timestamp": "2025-12-19T14:48:36.512952+00:00",
        "meta_object_name": "BEIDOU-3 IGSO-2 (C39)",
        "meta_object_id": "2019-035A",
        "meta_epoch": "2025-12-18T20:43:04.464768",
        "meta_mean_motion": 1.00269481,
        "meta_eccentricity": 0.00375097,
        "meta_inclination": 55.2274,
        "meta_ra_of_asc_node": 160.4476,
        "meta_arg_of_pericenter": 202.2689,
        "meta_mean_anomaly": 155.2054,
        "meta_ephemeris_type": 0,
        "meta_classification_type": "U",
        "meta_norad_cat_id": 44337,
        "meta_element_set_no": 999,
        "meta_rev_at_epoch": 2385,
        "meta_bstar": 0,
        "meta_mean_motion_dot": -5.3e-07,
        "meta_mean_motion_ddot": 0,
        "tle_line1": "1 44337U 19035A   25352.86324612 -.00000053  00000+0  00000+0 0  9995",
        "tle_line2": "2 44337  55.2274 160.4476 0037509 202.2689 155.2054  1.00269481 23850"
      },
      "geometry": {
        "type": "Point",
        "coordinates": [
          70.50507008211115,
          -55.16713522991313
        ]
      }
    },
    {
      "type": "Feature",
      "properties": {
        "norad_id": 44542,
        "name": "BEIDOU-3 M24 (C46)",
        "group": "beidou",
        "lat": 7.430150197517615,
        "lon": 3.4262520218106207,
        "alt_km": 21549.604245510713,
        "timestamp": "2025-12-19T14:48:36.512964+00:00",
        "meta_object_name": "BEIDOU-3 M24 (C46)",
        "meta_object_id": "2019-061A",
        "meta_epoch": "2025-12-18T19:48:47.972736",
        "meta_mean_motion": 1.86229393,
        "meta_eccentricity": 0.00096105,
        "meta_inclination": 54.4002,
        "meta_ra_of_asc_node": 188.8106,
        "meta_arg_of_pericenter": 25.1866,
        "meta_mean_anomaly": 334.925,
        "meta_ephemeris_type": 0,
        "meta_classification_type": "U",
        "meta_norad_cat_id": 44542,
        "meta_element_set_no": 999,
        "meta_rev_at_epoch": 4243,
        "meta_bstar": 0,
        "meta_mean_motion_dot": 1.06e-06,
        "meta_mean_motion_ddot": 0,
        "tle_line1": "1 44542U 19061A   25352.82555524  .00000106  00000+0  00000+0 0  9994",
        "tle_line2": "2 44542  54.4002 188.8106 0009610  25.1866 334.9250  1.86229393 42434"
      },
      "geometry": {
        "type": "Point",
        "coordinates": [
          3.4262520218106207,
          7.430150197517615
        ]
      }
    },
    {
      "type": "Feature",
      "properties": {
        "norad_id": 44543,
        "name": "BEIDOU-3 M23 (C45)",
        "group": "beidou",
        "lat": 53.86043772442134,
        "lon": -92.24676767716471,
        "alt_km": 21513.25572906513,
        "timestamp": "2025-12-19T14:48:36.512975+00:00",
        "meta_object_name": "BEIDOU-3 M23 (C45)",
        "meta_object_id": "2019-061B",
        "meta_epoch": "2025-12-19T04:54:38.810304",
        "meta_mean_motion": 1.86227724,
        "meta_eccentricity": 0.0006055,
        "meta_inclination": 54.3992,
        "meta_ra_of_asc_node": 188.7663,
        "meta_arg_of_pericenter": 24.9207,
        "meta_mean_anomaly": 142.055,
        "meta_ephemeris_type": 0,
        "meta_classification_type": "U",
        "meta_norad_cat_id": 44543,
        "meta_element_set_no": 999,
        "meta_rev_at_epoch": 4244,
        "meta_bstar": 0,
        "meta_mean_motion_dot": 1.04e-06,
        "meta_mean_motion_ddot": 0,
        "tle_line1": "1 44543U 19061B   25353.20461586  .00000104  00000+0  00000+0 0  9990",
        "tle_line2": "2 44543  54.3992 188.7663 0006055  24.9207 142.0550  1.86227724 42443"
      },
      "geometry": {
        "type": "Point",
        "coordinates": [
          -92.24676767716471,
          53.86043772442134
        ]
      }
    }
  ]
}